[
  {
    "OBJECT_NAME": "CANOPY-PLANET-FIXTURE-1",
    "OBJECT_ID": "2026-004A",
    "NORAD_CAT_ID": 99004,
    "EPOCH": "2026-05-02T00:00:00.000000",
    "MEAN_MOTION": 15.2312,
    "ECCENTRICITY": 0.0009,
    "INCLINATION": 97.4,
    "RA_OF_ASC_NODE": 63.6,
    "ARG_OF_PERICENTER": 119.1,
    "MEAN_ANOMALY": 240.9,
    "EPHEMERIS_TYPE": 0,
    "CLASSIFICATION_TYPE": "U",
    "ELEMENT_SET_NO": 1,
    "REV_AT_EPOCH": 31,
    "BSTAR": 0.00021,
    "MEAN_MOTION_DOT": 0.00002,
    "MEAN_MOTION_DDOT": 0.0
  }
]
